{"type": "FeatureCollection", "features": [ {"type": "Feature", "properties": {"norad_id": 33980, "name": "COSMOS 2251 DEB", "group": "cosmos-2251-debris", "lat": -48.613501575346234, "lon": -130.51031072088026, "alt_km": 693.4602129666046, "timestamp": "2025-12-27T21:25:02.909974+00:00", "meta": {"OBJECT_NAME": "COSMOS 2251 DEB", "OBJECT_ID": "1993-036FP", "EPOCH": "2025-12-27T12:24:15.159168", "MEAN_MOTION": 14.58732259, "ECCENTRICITY": 0.002774, "INCLINATION": 74.0211, "RA_OF_ASC_NODE": 31.2296, "ARG_OF_PERICENTER": 173.5674, "MEAN_ANOMALY": 246.0027, "EPHEMERIS_TYPE": 0, "CLASSIFICATION_TYPE": "U", "NORAD_CAT_ID": 33980, "ELEMENT_SET_NO": 999, "REV_AT_EPOCH": 89010, "BSTAR": 0.00061983, "MEAN_MOTION_DOT": 2.88e-05, "MEAN_MOTION_DDOT": 0}, "tle": {"line1": "1 33980U 93036FP  25361.51684212  .00002880  00000+0  61983-3 0  9997", "line2": "2 33980  74.0211  31.2296 0027740 173.5674 246.0027 14.58732259890101"}}, "geometry": {"type": "Point", "coordinates": [-130.51031072088026, -48.613501575346234]}}, {"type": "Feature", "properties": {"norad_id": 33982, "name": "COSMOS 2251 DEB", "group": "cosmos-2251-debris", "lat": 9.155580101659188, "lon": 148.42874848649382, "alt_km": 743.4766406123099, "timestamp": "2025-12-27T21:25:02.909985+00:00", "meta": {"OBJECT_NAME": "COSMOS 2251 DEB", "OBJECT_ID": "1993-036FR", "EPOCH": "2025-12-27T08:00:32.602752", "MEAN_MOTION": 14.6028315, "ECCENTRICITY": 0.0075613, "INCLINATION": 74.0713, "RA_OF_ASC_NODE": 332.1308, "ARG_OF_PERICENTER": 12.6013, "MEAN_ANOMALY": 101.6425, "EPHEMERIS_TYPE": 0, "CLASSIFICATION_TYPE": "U", "NORAD_CAT_ID": 33982, "ELEMENT_SET_NO": 999, "REV_AT_EPOCH": 89372, "BSTAR": 0.00068802, "MEAN_MOTION_DOT": 3.429e-05, "MEAN_MOTION_DDOT": 0}, "tle": {"line1": "1 33982U 93036FR  25361.33371068  .00003429  00000+0  68802-3 0  9998", "line2": "2 33982  74.0713 332.1308 0075613  12.6013 101.6425 14.60283150893722"}}, "geometry": {"type": "Point", "coordinates": [148.42874848649382, 9.155580101659188]}}, {"type": "Feature", "properties": {"norad_id": 33983, "name": "COSMOS 2251 DEB", "group": "cosmos-2251-debris", "lat": -54.520233698928905, "lon": 94.9304081616329, "alt_km": 727.832355479618, "timestamp": "2025-12-27T21:25:02.909996+00:00", "meta": {"OBJECT_NAME": "COSMOS 2251 DEB", "OBJECT_ID": "1993-036FS", "EPOCH": "2025-12-27T12:06:48.453408", "MEAN_MOTION": 14.50734189, "ECCENTRICITY": 0.0021047, "INCLINATION": 74.0504, "RA_OF_ASC_NODE": 119.3134, "ARG_OF_PERICENTER": 220.9019, "MEAN_ANOMALY": 217.2199, "EPHEMERIS_TYPE": 0, "CLASSIFICATION_TYPE": "U", "NORAD_CAT_ID": 33983, "ELEMENT_SET_NO": 999, "REV_AT_EPOCH": 88843, "BSTAR": 0.00066032, "MEAN_MOTION_DOT": 2.577e-05, "MEAN_MOTION_DDOT": 0}, "tle": {"line1": "1 33983U 93036FS  25361.50472747  .00002577  00000+0  66032-3 0  9990", "line2": "2 33983  74.0504 119.3134 0021047 220.9019 217.2199 14.50734189888431"}}, "geometry": {"type": "Point", "coordinates": [94.9304081616329, -54.520233698928905]}}, {"type": "Feature", "properties": {"norad_id": 33984, "name": "COSMOS 2251 DEB", "group": "cosmos-2251-debris", "lat": -4.962448472567837, "lon": 139.26684193715354, "alt_km": 662.4154806181741, "timestamp": "2025-12-27T21:25:02.910007+00:00", "meta": {"OBJECT_NAME": "COSMOS 2251 DEB", "OBJECT_ID": "1993-036FT", "EPOCH": "2025-12-27T08:12:26.906112", "MEAN_MOTION": 14.66493256, "ECCENTRICITY": 0.0022377, "INCLINATION": 74.0096, "RA_OF_ASC_NODE": 318.9026, "ARG_OF_PERICENTER": 152.4294, "MEAN_ANOMALY": 7.8104, "EPHEMERIS_TYPE": 0, "CLASSIFICATION_TYPE": "U", "NORAD_CAT_ID": 33984, "ELEMENT_SET_NO": 999, "REV_AT_EPOCH": 89280, "BSTAR": 0.00098923, "MEAN_MOTION_DOT": 5.474e-05, "MEAN_MOTION_DDOT": 0}, "tle": {"line1": "1 33984U 93036FT  25361.34197808  .00005474  00000+0  98923-3 0  9998", "line2": "2 33984  74.0096 318.9026 0022377 152.4294   7.8104 14.66493256892805"}}, "geometry": {"type": "Point", "coordinates": [139.26684193715354, -4.962448472567837]}}, {"type": "Feature", "properties": {"norad_id": 33986, "name": "COSMOS 2251 DEB", "group": "cosmos-2251-debris", "lat": 8.107741211061727, "lon": -83.13623035984003, "alt_km": 722.4598104935185, "timestamp": "2025-12-27T21:25:02.910018+00:00", "meta": {"OBJECT_NAME": "COSMOS 2251 DEB", "OBJECT_ID": "1993-036FV", "EPOCH": "2025-12-27T05:26:53.214720", "MEAN_MOTION": 14.43274474, "ECCENTRICITY": 0.0041189, "INCLINATION": 74.0362, "RA_OF_ASC_NODE": 275.7622, "ARG_OF_PERICENTER": 345.4458, "MEAN_ANOMALY": 167.0777, "EPHEMERIS_TYPE": 0, "CLASSIFICATION_TYPE": "U", "NORAD_CAT_ID": 33986, "ELEMENT_SET_NO": 999, "REV_AT_EPOCH": 88237, "BSTAR": 0.00079473, "MEAN_MOTION_DOT": 2.678e-05, "MEAN_MOTION_DDOT": 0}, "tle": {"line1": "1 33986U 93036FV  25361.22700480  .00002678  00000+0  79473-3 0  9995", "line2": "2 33986  74.0362 275.7622 0041189 345.4458 167.0777 14.43274474882373"}}, "geometry": {"type": "Point", "coordinates": [-83.13623035984003, 8.107741211061727]}}, {"type": "Feature", "properties": {"norad_id": 33990, "name": "COSMOS 2251 DEB", "group": "cosmos-2251-debris", "lat": 21.82025630145262, "lon": -91.70443562730892, "alt_km": 1131.1209762895778, "timestamp": "2025-12-27T21:25:02.910028+00:00", "meta": {"OBJECT_NAME": "COSMOS 2251 DEB", "OBJECT_ID": "1993-036FZ", "EPOCH": "2025-12-27T11:12:42.307776", "MEAN_MOTION": 13.50019373, "ECCENTRICITY": 0.0407226, "INCLINATION": 73.9281, "RA_OF_ASC_NODE": 262.3501, "ARG_OF_PERICENTER": 280.0059, "MEAN_ANOMALY": 192.3553, "EPHEMERIS_TYPE": 0, "CLASSIFICATION_TYPE": "U", "NORAD_CAT_ID": 33990, "ELEMENT_SET_NO": 999, "REV_AT_EPOCH": 82928, "BSTAR": 0.00078639, "MEAN_MOTION_DOT": 8.13e-06, "MEAN_MOTION_DDOT": 0}, "tle": {"line1": "1 33990U 93036FZ  25361.46715634  .00000813  00000+0  78639-3 0  9995", "line2": "2 33990  73.9281 262.3501 0407226 280.0059 192.3553 13.50019373829289"}}, "geometry": {"type": "Point", "coordinates": [-91.70443562730892, 21.82025630145262]}}, {"type": "Feature", "properties": {"norad_id": 33992, "name": "COSMOS 2251 DEB", "group": "cosmos-2251-debris", "lat": 36.915950244422476, "lon": -39.063845037963425, "alt_km": 636.0403426669327, "timestamp": "2025-12-27T21:25:02.910053+00:00", "meta": {"OBJECT_NAME": "COSMOS 2251 DEB", "OBJECT_ID": "1993-036GB", "EPOCH": "2025-12-27T07:03:23.365152", "MEAN_MOTION": 14.66338641, "ECCENTRICITY": 0.0051968, "INCLINATION": 74.0245, "RA_OF_ASC_NODE": 309.6618, "ARG_OF_PERICENTER": 63.1156, "MEAN_ANOMALY": 58.4582, "EPHEMERIS_TYPE": 0, "CLASSIFICATION_TYPE": "U", "NORAD_CAT_ID": 33992, "ELEMENT_SET_NO": 999, "REV_AT_EPOCH": 89338, "BSTAR": 0.00099184, "MEAN_MOTION_DOT": 5.56e-05, "MEAN_MOTION_DDOT": 0}, "tle": {"line1": "1 33992U 93036GB  25361.29402043  .00005560  00000+0  99184-3 0  9997", "line2": "2 33992  74.0245 309.6618 0051968  63.1156  58.4582 14.66338641893389"}}, "geometry": {"type": "Point", "coordinates": [-39.063845037963425, 36.915950244422476]}}, {"type": "Feature", "properties": {"norad_id": 33994, "name": "COSMOS 2251 DEB", "group": "cosmos-2251-debris", "lat": 25.210829758616537, "lon": 170.11126679017687, "alt_km": 753.959474503632, "timestamp": "2025-12-27T21:25:02.910064+00:00", "meta": {"OBJECT_NAME": "COSMOS 2251 DEB", "OBJECT_ID": "1993-036GD", "EPOCH": "2025-12-27T11:34:14.888064", "MEAN_MOTION": 14.41224152, "ECCENTRICITY": 0.0024068, "INCLINATION": 74.0416, "RA_OF_ASC_NODE": 163.1281, "ARG_OF_PERICENTER": 295.0114, "MEAN_ANOMALY": 123.2813, "EPHEMERIS_TYPE": 0, "CLASSIFICATION_TYPE": "U", "NORAD_CAT_ID": 33994, "ELEMENT_SET_NO": 999, "REV_AT_EPOCH": 88632, "BSTAR": 0.00012257, "MEAN_MOTION_DOT": 3.7e-06, "MEAN_MOTION_DDOT": 0}, "tle": {"line1": "1 33994U 93036GD  25361.48211676  .00000370  00000+0  12257-3 0  9990", "line2": "2 33994  74.0416 163.1281 0024068 295.0114 123.2813 14.41224152886329"}}, "geometry": {"type": "Point", "coordinates": [170.11126679017687, 25.210829758616537]}}, {"type": "Feature", "properties": {"norad_id": 33995, "name": "COSMOS 2251 DEB", "group": "cosmos-2251-debris", "lat": 62.31741516848988, "lon": -121.37480439213171, "alt_km": 727.6410996287377, "timestamp": "2025-12-27T21:25:02.910075+00:00", "meta": {"OBJECT_NAME": "COSMOS 2251 DEB", "OBJECT_ID": "1993-036GE", "EPOCH": "2025-12-27T12:31:49.202400", "MEAN_MOTION": 14.34843439, "ECCENTRICITY": 0.005914, "INCLINATION": 74.0614, "RA_OF_ASC_NODE": 92.3076, "ARG_OF_PERICENTER": 102.4514, "MEAN_ANOMALY": 258.3265, "EPHEMERIS_TYPE": 0, "CLASSIFICATION_TYPE": "U", "NORAD_CAT_ID": 33995, "ELEMENT_SET_NO": 999, "REV_AT_EPOCH": 87731, "BSTAR": 0.00085666, "MEAN_MOTION_DOT": 2.456e-05, "MEAN_MOTION_DDOT": 0}, "tle": {"line1": "1 33995U 93036GE  25361.52209725  .00002456  00000+0  85666-3 0  9999", "line2": "2 33995  74.0614  92.3076 0059140 102.4514 258.3265 14.34843439877316"}}, "geometry": {"type": "Point", "coordinates": [-121.37480439213171, 62.31741516848988]}}, {"type": "Feature", "properties": {"norad_id": 33999, "name": "COSMOS 2251 DEB", "group": "cosmos-2251-debris", "lat": 42.382870485783194, "lon": -144.18509897031777, "alt_km": 592.6751104631339, "timestamp": "2025-12-27T21:25:02.910085+00:00", "meta": {"OBJECT_NAME": "COSMOS 2251 DEB", "OBJECT_ID": "1993-036GJ", "EPOCH": "2025-12-26T22:33:42.220800", "MEAN_MOTION": 14.83640087, "ECCENTRICITY": 0.00443518, "INCLINATION": 73.9179, "RA_OF_ASC_NODE": 202.4501, "ARG_OF_PERICENTER": 93.5688, "MEAN_ANOMALY": 267.0563, "EPHEMERIS_TYPE": 0, "CLASSIFICATION_TYPE": "U", "NORAD_CAT_ID": 33999, "ELEMENT_SET_NO": 999, "REV_AT_EPOCH": 89461, "BSTAR": 0.0014019773, "MEAN_MOTION_DOT": 0.00011759, "MEAN_MOTION_DDOT": 0}, "tle": {"line1": "1 33999U 93036GJ  25360.94007200  .00011759  00000+0  14020-2 0  9993", "line2": "2 33999  73.9179 202.4501 0044351  93.5688 267.0563 14.83640087894619"}}, "geometry": {"type": "Point", "coordinates": [-144.18509897031777, 42.382870485783194]}}]}